STARLINK-30137
1 56843U 23079W   26061.16668981  .00108213  00000+0  68778-2 0  9999
2 56843  43.0007 148.1060 0002342 242.9628 100.6385 15.07712119  5817
